{
"type": "FeatureCollection",
"name": "EDXX_urban_labels",
"crs": { "type": "name", "properties": { "name": "urn:ogc:def:crs:OGC:1.3:CRS84" } },
"features": [
{ "type": "Feature", "properties": { "id": null, "Name": "Kiel", "description": null, "timestamp": null, "begin": null, "end": null, "altitudeMode": null, "tessellate": -1, "extrude": 0, "visibility": -1, "drawOrder": null, "icon": null }, "geometry": { "type": "Point", "coordinates": [ 10.12331915332698, 54.319545774830438 ] } },
{ "type": "Feature", "properties": { "id": null, "Name": "Hamburg", "description": null, "timestamp": null, "begin": null, "end": null, "altitudeMode": null, "tessellate": -1, "extrude": 0, "visibility": -1, "drawOrder": null, "icon": null }, "geometry": { "type": "Point", "coordinates": [ 9.961323527294724, 53.562022726467767 ] } },
{ "type": "Feature", "properties": { "id": null, "Name": "Bremen", "description": null, "timestamp": null, "begin": null, "end": null, "altitudeMode": null, "tessellate": -1, "extrude": 0, "visibility": -1, "drawOrder": null, "icon": null }, "geometry": { "type": "Point", "coordinates": [ 8.809082417338969, 53.083516833585513 ] } },
{ "type": "Feature", "properties": { "id": null, "Name": "Schwerin", "description": null, "timestamp": null, "begin": null, "end": null, "altitudeMode": null, "tessellate": -1, "extrude": 0, "visibility": -1, "drawOrder": null, "icon": null }, "geometry": { "type": "Point", "coordinates": [ 11.40084442282369, 53.637141813850668 ] } },
{ "type": "Feature", "properties": { "id": null, "Name": "Hannover", "description": null, "timestamp": null, "begin": null, "end": null, "altitudeMode": null, "tessellate": -1, "extrude": 0, "visibility": -1, "drawOrder": null, "icon": null }, "geometry": { "type": "Point", "coordinates": [ 9.733139074522633, 52.377377119656771 ] } },
{ "type": "Feature", "properties": { "id": null, "Name": "Magdeburg", "description": null, "timestamp": null, "begin": null, "end": null, "altitudeMode": null, "tessellate": -1, "extrude": 0, "visibility": -1, "drawOrder": null, "icon": null }, "geometry": { "type": "Point", "coordinates": [ 11.611502480451611, 52.11440277302048 ] } },
{ "type": "Feature", "properties": { "id": null, "Name": "Potsdam", "description": null, "timestamp": null, "begin": null, "end": null, "altitudeMode": null, "tessellate": -1, "extrude": 0, "visibility": -1, "drawOrder": null, "icon": null }, "geometry": { "type": "Point", "coordinates": [ 13.06671049345927, 52.389652827862633 ] } },
{ "type": "Feature", "properties": { "id": null, "Name": "Berlin", "description": null, "timestamp": null, "begin": null, "end": null, "altitudeMode": null, "tessellate": -1, "extrude": 0, "visibility": -1, "drawOrder": null, "icon": null }, "geometry": { "type": "Point", "coordinates": [ 13.405356786804569, 52.52099411538795 ] } },
{ "type": "Feature", "properties": { "id": null, "Name": "Dresen", "description": null, "timestamp": null, "begin": null, "end": null, "altitudeMode": null, "tessellate": -1, "extrude": 0, "visibility": -1, "drawOrder": null, "icon": null }, "geometry": { "type": "Point", "coordinates": [ 13.73440814094581, 51.049813520772418 ] } },
{ "type": "Feature", "properties": { "id": null, "Name": "Erfurt", "description": null, "timestamp": null, "begin": null, "end": null, "altitudeMode": null, "tessellate": -1, "extrude": 0, "visibility": -1, "drawOrder": null, "icon": null }, "geometry": { "type": "Point", "coordinates": [ 11.034264233844469, 50.990873714717203 ] } },
{ "type": "Feature", "properties": { "id": null, "Name": "Düsseldorf", "description": null, "timestamp": null, "begin": null, "end": null, "altitudeMode": null, "tessellate": -1, "extrude": 0, "visibility": -1, "drawOrder": null, "icon": null }, "geometry": { "type": "Point", "coordinates": [ 6.790156437126651, 51.22038597906807 ] } },
{ "type": "Feature", "properties": { "id": null, "Name": "Mainz", "description": null, "timestamp": null, "begin": null, "end": null, "altitudeMode": null, "tessellate": -1, "extrude": 0, "visibility": -1, "drawOrder": null, "icon": null }, "geometry": { "type": "Point", "coordinates": [ 8.240761116243496, 50.005781123006599 ] } },
{ "type": "Feature", "properties": { "id": null, "Name": "Wiesbaden", "description": null, "timestamp": null, "begin": null, "end": null, "altitudeMode": null, "tessellate": -1, "extrude": 0, "visibility": -1, "drawOrder": null, "icon": null }, "geometry": { "type": "Point", "coordinates": [ 8.233466430873884, 50.070512304709077 ] } },
{ "type": "Feature", "properties": { "id": null, "Name": "Saarbrücken", "description": null, "timestamp": null, "begin": null, "end": null, "altitudeMode": null, "tessellate": -1, "extrude": 0, "visibility": -1, "drawOrder": null, "icon": null }, "geometry": { "type": "Point", "coordinates": [ 6.998944487855208, 49.23722571783626 ] } },
{ "type": "Feature", "properties": { "id": null, "Name": "Stuttgart", "description": null, "timestamp": null, "begin": null, "end": null, "altitudeMode": null, "tessellate": -1, "extrude": 0, "visibility": -1, "drawOrder": null, "icon": null }, "geometry": { "type": "Point", "coordinates": [ 9.185312122755402, 48.777608534206223 ] } },
{ "type": "Feature", "properties": { "id": null, "Name": "München", "description": null, "timestamp": null, "begin": null, "end": null, "altitudeMode": null, "tessellate": -1, "extrude": 0, "visibility": -1, "drawOrder": null, "icon": null }, "geometry": { "type": "Point", "coordinates": [ 11.573344159489309, 48.13616020877442 ] } },
{ "type": "Feature", "properties": { "id": null, "Name": "Flensburg", "description": null, "timestamp": null, "begin": null, "end": null, "altitudeMode": null, "tessellate": -1, "extrude": 0, "visibility": -1, "drawOrder": null, "icon": null }, "geometry": { "type": "Point", "coordinates": [ 9.446182296636819, 54.7920162256897 ] } },
{ "type": "Feature", "properties": { "id": null, "Name": "Lübeck", "description": null, "timestamp": null, "begin": null, "end": null, "altitudeMode": null, "tessellate": -1, "extrude": 0, "visibility": -1, "drawOrder": null, "icon": null }, "geometry": { "type": "Point", "coordinates": [ 10.68341117934018, 53.866535334032633 ] } },
{ "type": "Feature", "properties": { "id": null, "Name": "Rostock", "description": null, "timestamp": null, "begin": null, "end": null, "altitudeMode": null, "tessellate": -1, "extrude": 0, "visibility": -1, "drawOrder": null, "icon": null }, "geometry": { "type": "Point", "coordinates": [ 12.1032263680524, 54.091776039425127 ] } },
{ "type": "Feature", "properties": { "id": null, "Name": "Oldenburg", "description": null, "timestamp": null, "begin": null, "end": null, "altitudeMode": null, "tessellate": -1, "extrude": 0, "visibility": -1, "drawOrder": null, "icon": null }, "geometry": { "type": "Point", "coordinates": [ 8.210136173121667, 53.148946008671132 ] } },
{ "type": "Feature", "properties": { "id": null, "Name": "Wolfsburg", "description": null, "timestamp": null, "begin": null, "end": null, "altitudeMode": null, "tessellate": -1, "extrude": 0, "visibility": -1, "drawOrder": null, "icon": null }, "geometry": { "type": "Point", "coordinates": [ 10.785529087502081, 52.421854137443773 ] } },
{ "type": "Feature", "properties": { "id": null, "Name": "Braunschweig", "description": null, "timestamp": null, "begin": null, "end": null, "altitudeMode": null, "tessellate": -1, "extrude": 0, "visibility": -1, "drawOrder": null, "icon": null }, "geometry": { "type": "Point", "coordinates": [ 10.522003016728011, 52.266272468271637 ] } },
{ "type": "Feature", "properties": { "id": null, "Name": "Hildesheim", "description": null, "timestamp": null, "begin": null, "end": null, "altitudeMode": null, "tessellate": -1, "extrude": 0, "visibility": -1, "drawOrder": null, "icon": null }, "geometry": { "type": "Point", "coordinates": [ 9.953283647537795, 52.153229274698923 ] } },
{ "type": "Feature", "properties": { "id": null, "Name": "Salzgitter", "description": null, "timestamp": null, "begin": null, "end": null, "altitudeMode": null, "tessellate": -1, "extrude": 0, "visibility": -1, "drawOrder": null, "icon": null }, "geometry": { "type": "Point", "coordinates": [ 10.32519759253459, 52.158623677768269 ] } },
{ "type": "Feature", "properties": { "id": null, "Name": "Osnabrück", "description": null, "timestamp": null, "begin": null, "end": null, "altitudeMode": null, "tessellate": -1, "extrude": 0, "visibility": -1, "drawOrder": null, "icon": null }, "geometry": { "type": "Point", "coordinates": [ 8.048910283222666, 52.273895167349707 ] } },
{ "type": "Feature", "properties": { "id": null, "Name": "Halle", "description": null, "timestamp": null, "begin": null, "end": null, "altitudeMode": null, "tessellate": -1, "extrude": 0, "visibility": -1, "drawOrder": null, "icon": null }, "geometry": { "type": "Point", "coordinates": [ 11.97063162596827, 51.482708230790521 ] } },
{ "type": "Feature", "properties": { "id": null, "Name": "Göttingen", "description": null, "timestamp": null, "begin": null, "end": null, "altitudeMode": null, "tessellate": -1, "extrude": 0, "visibility": -1, "drawOrder": null, "icon": null }, "geometry": { "type": "Point", "coordinates": [ 9.93425694827307, 51.533342129995781 ] } },
{ "type": "Feature", "properties": { "id": null, "Name": "Kassel", "description": null, "timestamp": null, "begin": null, "end": null, "altitudeMode": null, "tessellate": -1, "extrude": 0, "visibility": -1, "drawOrder": null, "icon": null }, "geometry": { "type": "Point", "coordinates": [ 9.490060392477579, 51.312860362515487 ] } },
{ "type": "Feature", "properties": { "id": null, "Name": "Leipzig", "description": null, "timestamp": null, "begin": null, "end": null, "altitudeMode": null, "tessellate": -1, "extrude": 0, "visibility": -1, "drawOrder": null, "icon": null }, "geometry": { "type": "Point", "coordinates": [ 12.36896382391037, 51.338257301758453 ] } },
{ "type": "Feature", "properties": { "id": null, "Name": "Chemnitz", "description": null, "timestamp": null, "begin": null, "end": null, "altitudeMode": null, "tessellate": -1, "extrude": 0, "visibility": -1, "drawOrder": null, "icon": null }, "geometry": { "type": "Point", "coordinates": [ 12.919875294720089, 50.827245134034023 ] } },
{ "type": "Feature", "properties": { "id": null, "Name": "Cottbus", "description": null, "timestamp": null, "begin": null, "end": null, "altitudeMode": null, "tessellate": -1, "extrude": 0, "visibility": -1, "drawOrder": null, "icon": null }, "geometry": { "type": "Point", "coordinates": [ 14.33150467439328, 51.757067587496138 ] } },
{ "type": "Feature", "properties": { "id": null, "Name": "Görlitz", "description": null, "timestamp": null, "begin": null, "end": null, "altitudeMode": null, "tessellate": -1, "extrude": 0, "visibility": -1, "drawOrder": null, "icon": null }, "geometry": { "type": "Point", "coordinates": [ 14.982312900307109, 51.151833792071457 ] } },
{ "type": "Feature", "properties": { "id": null, "Name": "Zwickau", "description": null, "timestamp": null, "begin": null, "end": null, "altitudeMode": null, "tessellate": -1, "extrude": 0, "visibility": -1, "drawOrder": null, "icon": null }, "geometry": { "type": "Point", "coordinates": [ 12.489915777959551, 50.718693389278073 ] } },
{ "type": "Feature", "properties": { "id": null, "Name": "Plauen", "description": null, "timestamp": null, "begin": null, "end": null, "altitudeMode": null, "tessellate": -1, "extrude": 0, "visibility": -1, "drawOrder": null, "icon": null }, "geometry": { "type": "Point", "coordinates": [ 12.13663020918521, 50.496984593618947 ] } },
{ "type": "Feature", "properties": { "id": null, "Name": "Bayreuth", "description": null, "timestamp": null, "begin": null, "end": null, "altitudeMode": null, "tessellate": -1, "extrude": 0, "visibility": -1, "drawOrder": null, "icon": null }, "geometry": { "type": "Point", "coordinates": [ 11.572414688244329, 49.945027773128999 ] } },
{ "type": "Feature", "properties": { "id": null, "Name": "Nürnberg", "description": null, "timestamp": null, "begin": null, "end": null, "altitudeMode": null, "tessellate": -1, "extrude": 0, "visibility": -1, "drawOrder": null, "icon": null }, "geometry": { "type": "Point", "coordinates": [ 11.07045638115493, 49.449410738252901 ] } },
{ "type": "Feature", "properties": { "id": null, "Name": "Erlangen", "description": null, "timestamp": null, "begin": null, "end": null, "altitudeMode": null, "tessellate": -1, "extrude": 0, "visibility": -1, "drawOrder": null, "icon": null }, "geometry": { "type": "Point", "coordinates": [ 11.00551978404132, 49.589412488235233 ] } },
{ "type": "Feature", "properties": { "id": null, "Name": "Jena", "description": null, "timestamp": null, "begin": null, "end": null, "altitudeMode": null, "tessellate": -1, "extrude": 0, "visibility": -1, "drawOrder": null, "icon": null }, "geometry": { "type": "Point", "coordinates": [ 11.585699571746069, 50.929430047050452 ] } },
{ "type": "Feature", "properties": { "id": null, "Name": "Gera", "description": null, "timestamp": null, "begin": null, "end": null, "altitudeMode": null, "tessellate": -1, "extrude": 0, "visibility": -1, "drawOrder": null, "icon": null }, "geometry": { "type": "Point", "coordinates": [ 12.080655031964071, 50.876444428089258 ] } },
{ "type": "Feature", "properties": { "id": null, "Name": "Würzburg", "description": null, "timestamp": null, "begin": null, "end": null, "altitudeMode": null, "tessellate": -1, "extrude": 0, "visibility": -1, "drawOrder": null, "icon": null }, "geometry": { "type": "Point", "coordinates": [ 9.947282030024232, 49.789498434547063 ] } },
{ "type": "Feature", "properties": { "id": null, "Name": "Ansbach", "description": null, "timestamp": null, "begin": null, "end": null, "altitudeMode": null, "tessellate": -1, "extrude": 0, "visibility": -1, "drawOrder": null, "icon": null }, "geometry": { "type": "Point", "coordinates": [ 10.5713754540454, 49.29993067500078 ] } },
{ "type": "Feature", "properties": { "id": null, "Name": "Regensburg", "description": null, "timestamp": null, "begin": null, "end": null, "altitudeMode": null, "tessellate": -1, "extrude": 0, "visibility": -1, "drawOrder": null, "icon": null }, "geometry": { "type": "Point", "coordinates": [ 12.09982810353233, 49.017813071326692 ] } },
{ "type": "Feature", "properties": { "id": null, "Name": "Ingolstadt", "description": null, "timestamp": null, "begin": null, "end": null, "altitudeMode": null, "tessellate": -1, "extrude": 0, "visibility": -1, "drawOrder": null, "icon": null }, "geometry": { "type": "Point", "coordinates": [ 11.42383001035814, 48.765847827906057 ] } },
{ "type": "Feature", "properties": { "id": null, "Name": "Augsburg", "description": null, "timestamp": null, "begin": null, "end": null, "altitudeMode": null, "tessellate": -1, "extrude": 0, "visibility": -1, "drawOrder": null, "icon": null }, "geometry": { "type": "Point", "coordinates": [ 10.901165042971879, 48.365828066977571 ] } },
{ "type": "Feature", "properties": { "id": null, "Name": "Frankfurt (Oder)", "description": null, "timestamp": null, "begin": null, "end": null, "altitudeMode": null, "tessellate": -1, "extrude": 0, "visibility": -1, "drawOrder": null, "icon": null }, "geometry": { "type": "Point", "coordinates": [ 14.547344408403969, 52.345854511900647 ] } },
{ "type": "Feature", "properties": { "id": null, "Name": "Memmingen", "description": null, "timestamp": null, "begin": null, "end": null, "altitudeMode": null, "tessellate": -1, "extrude": 0, "visibility": -1, "drawOrder": null, "icon": null }, "geometry": { "type": "Point", "coordinates": [ 10.17668357120326, 47.984028929581633 ] } },
{ "type": "Feature", "properties": { "id": null, "Name": "Kempten", "description": null, "timestamp": null, "begin": null, "end": null, "altitudeMode": null, "tessellate": -1, "extrude": 0, "visibility": -1, "drawOrder": null, "icon": null }, "geometry": { "type": "Point", "coordinates": [ 10.315284329089881, 47.723406224721792 ] } },
{ "type": "Feature", "properties": { "id": null, "Name": "Ulm", "description": null, "timestamp": null, "begin": null, "end": null, "altitudeMode": null, "tessellate": -1, "extrude": 0, "visibility": -1, "drawOrder": null, "icon": null }, "geometry": { "type": "Point", "coordinates": [ 9.988172722592594, 48.400872868039791 ] } },
{ "type": "Feature", "properties": { "id": null, "Name": "Freiburg", "description": null, "timestamp": null, "begin": null, "end": null, "altitudeMode": null, "tessellate": -1, "extrude": 0, "visibility": -1, "drawOrder": null, "icon": null }, "geometry": { "type": "Point", "coordinates": [ 7.842943773666693, 47.996189793503703 ] } },
{ "type": "Feature", "properties": { "id": null, "Name": "Friedrichshafen", "description": null, "timestamp": null, "begin": null, "end": null, "altitudeMode": null, "tessellate": -1, "extrude": 0, "visibility": -1, "drawOrder": null, "icon": null }, "geometry": { "type": "Point", "coordinates": [ 9.472082463564441, 47.655119539540223 ] } },
{ "type": "Feature", "properties": { "id": null, "Name": "Reutlingen", "description": null, "timestamp": null, "begin": null, "end": null, "altitudeMode": null, "tessellate": -1, "extrude": 0, "visibility": -1, "drawOrder": null, "icon": null }, "geometry": { "type": "Point", "coordinates": [ 9.209285745244184, 48.489892398740238 ] } },
{ "type": "Feature", "properties": { "id": null, "Name": "Pforzheim", "description": null, "timestamp": null, "begin": null, "end": null, "altitudeMode": null, "tessellate": -1, "extrude": 0, "visibility": -1, "drawOrder": null, "icon": null }, "geometry": { "type": "Point", "coordinates": [ 8.694303808170183, 48.892544580183127 ] } },
{ "type": "Feature", "properties": { "id": null, "Name": "Karlsruhe", "description": null, "timestamp": null, "begin": null, "end": null, "altitudeMode": null, "tessellate": -1, "extrude": 0, "visibility": -1, "drawOrder": null, "icon": null }, "geometry": { "type": "Point", "coordinates": [ 8.400143843165253, 49.003637873882752 ] } },
{ "type": "Feature", "properties": { "id": null, "Name": "Heilbronn", "description": null, "timestamp": null, "begin": null, "end": null, "altitudeMode": null, "tessellate": -1, "extrude": 0, "visibility": -1, "drawOrder": null, "icon": null }, "geometry": { "type": "Point", "coordinates": [ 9.221330215997522, 49.138788330514927 ] } },
{ "type": "Feature", "properties": { "id": null, "Name": "Kaiserslautern", "description": null, "timestamp": null, "begin": null, "end": null, "altitudeMode": null, "tessellate": -1, "extrude": 0, "visibility": -1, "drawOrder": null, "icon": null }, "geometry": { "type": "Point", "coordinates": [ 7.765940544961085, 49.441785076248969 ] } },
{ "type": "Feature", "properties": { "id": null, "Name": "Mannheim/Ludwigshafen", "description": null, "timestamp": null, "begin": null, "end": null, "altitudeMode": null, "tessellate": -1, "extrude": 0, "visibility": -1, "drawOrder": null, "icon": null }, "geometry": { "type": "Point", "coordinates": [ 8.408069729219266, 49.49115619826096 ] } },
{ "type": "Feature", "properties": { "id": null, "Name": "Heidelberg", "description": null, "timestamp": null, "begin": null, "end": null, "altitudeMode": null, "tessellate": -1, "extrude": 0, "visibility": -1, "drawOrder": null, "icon": null }, "geometry": { "type": "Point", "coordinates": [ 8.683158596420245, 49.404176230858518 ] } },
{ "type": "Feature", "properties": { "id": null, "Name": "Darmstadt", "description": null, "timestamp": null, "begin": null, "end": null, "altitudeMode": null, "tessellate": -1, "extrude": 0, "visibility": -1, "drawOrder": null, "icon": null }, "geometry": { "type": "Point", "coordinates": [ 8.650384783945279, 49.87214610555634 ] } },
{ "type": "Feature", "properties": { "id": null, "Name": "Frankfurt", "description": null, "timestamp": null, "begin": null, "end": null, "altitudeMode": null, "tessellate": -1, "extrude": 0, "visibility": -1, "drawOrder": null, "icon": null }, "geometry": { "type": "Point", "coordinates": [ 8.661733854020957, 50.117540825608337 ] } },
{ "type": "Feature", "properties": { "id": null, "Name": "Aschaffenburg", "description": null, "timestamp": null, "begin": null, "end": null, "altitudeMode": null, "tessellate": -1, "extrude": 0, "visibility": -1, "drawOrder": null, "icon": null }, "geometry": { "type": "Point", "coordinates": [ 9.139790641352267, 49.980882482029863 ] } },
{ "type": "Feature", "properties": { "id": null, "Name": "Hanau", "description": null, "timestamp": null, "begin": null, "end": null, "altitudeMode": null, "tessellate": -1, "extrude": 0, "visibility": -1, "drawOrder": null, "icon": null }, "geometry": { "type": "Point", "coordinates": [ 8.925887718413355, 50.125562609629277 ] } },
{ "type": "Feature", "properties": { "id": null, "Name": "Trier", "description": null, "timestamp": null, "begin": null, "end": null, "altitudeMode": null, "tessellate": -1, "extrude": 0, "visibility": -1, "drawOrder": null, "icon": null }, "geometry": { "type": "Point", "coordinates": [ 6.638846923322934, 49.751623217026697 ] } },
{ "type": "Feature", "properties": { "id": null, "Name": "Gießen", "description": null, "timestamp": null, "begin": null, "end": null, "altitudeMode": null, "tessellate": -1, "extrude": 0, "visibility": -1, "drawOrder": null, "icon": null }, "geometry": { "type": "Point", "coordinates": [ 8.673731568187273, 50.580796648089851 ] } },
{ "type": "Feature", "properties": { "id": null, "Name": "Koblenz", "description": null, "timestamp": null, "begin": null, "end": null, "altitudeMode": null, "tessellate": -1, "extrude": 0, "visibility": -1, "drawOrder": null, "icon": null }, "geometry": { "type": "Point", "coordinates": [ 7.577687529094614, 50.355423705310081 ] } },
{ "type": "Feature", "properties": { "id": null, "Name": "Bonn", "description": null, "timestamp": null, "begin": null, "end": null, "altitudeMode": null, "tessellate": -1, "extrude": 0, "visibility": -1, "drawOrder": null, "icon": null }, "geometry": { "type": "Point", "coordinates": [ 7.090645516574758, 50.736931590604677 ] } },
{ "type": "Feature", "properties": { "id": null, "Name": "Siegen", "description": null, "timestamp": null, "begin": null, "end": null, "altitudeMode": null, "tessellate": -1, "extrude": 0, "visibility": -1, "drawOrder": null, "icon": null }, "geometry": { "type": "Point", "coordinates": [ 8.029997483837869, 50.882332691486518 ] } },
{ "type": "Feature", "properties": { "id": null, "Name": "Aachen", "description": null, "timestamp": null, "begin": null, "end": null, "altitudeMode": null, "tessellate": -1, "extrude": 0, "visibility": -1, "drawOrder": null, "icon": null }, "geometry": { "type": "Point", "coordinates": [ 6.086953120462518, 50.773824540991257 ] } },
{ "type": "Feature", "properties": { "id": null, "Name": "Köln", "description": null, "timestamp": null, "begin": null, "end": null, "altitudeMode": null, "tessellate": -1, "extrude": 0, "visibility": -1, "drawOrder": null, "icon": null }, "geometry": { "type": "Point", "coordinates": [ 6.951852400461929, 50.941180643749377 ] } },
{ "type": "Feature", "properties": { "id": null, "Name": "Bergisch Gladbach", "description": null, "timestamp": null, "begin": null, "end": null, "altitudeMode": null, "tessellate": -1, "extrude": 0, "visibility": -1, "drawOrder": null, "icon": null }, "geometry": { "type": "Point", "coordinates": [ 7.123059559757747, 50.988359591231472 ] } },
{ "type": "Feature", "properties": { "id": null, "Name": "Neuss", "description": null, "timestamp": null, "begin": null, "end": null, "altitudeMode": null, "tessellate": -1, "extrude": 0, "visibility": -1, "drawOrder": null, "icon": null }, "geometry": { "type": "Point", "coordinates": [ 6.685852553944411, 51.199701378250779 ] } },
{ "type": "Feature", "properties": { "id": null, "Name": "Duisburg", "description": null, "timestamp": null, "begin": null, "end": null, "altitudeMode": null, "tessellate": -1, "extrude": 0, "visibility": -1, "drawOrder": null, "icon": null }, "geometry": { "type": "Point", "coordinates": [ 6.763235090039537, 51.428924667902287 ] } },
{ "type": "Feature", "properties": { "id": null, "Name": "Essen", "description": null, "timestamp": null, "begin": null, "end": null, "altitudeMode": null, "tessellate": -1, "extrude": 0, "visibility": -1, "drawOrder": null, "icon": null }, "geometry": { "type": "Point", "coordinates": [ 7.01722760087939, 51.45832153299169 ] } },
{ "type": "Feature", "properties": { "id": null, "Name": "Dortmund", "description": null, "timestamp": null, "begin": null, "end": null, "altitudeMode": null, "tessellate": -1, "extrude": 0, "visibility": -1, "drawOrder": null, "icon": null }, "geometry": { "type": "Point", "coordinates": [ 7.464473060408263, 51.512825853963321 ] } },
{ "type": "Feature", "properties": { "id": null, "Name": "Wuppertal", "description": null, "timestamp": null, "begin": null, "end": null, "altitudeMode": null, "tessellate": -1, "extrude": 0, "visibility": -1, "drawOrder": null, "icon": null }, "geometry": { "type": "Point", "coordinates": [ 7.145820472896909, 51.258431889753027 ] } },
{ "type": "Feature", "properties": { "id": null, "Name": "Bochum", "description": null, "timestamp": null, "begin": null, "end": null, "altitudeMode": null, "tessellate": -1, "extrude": 0, "visibility": -1, "drawOrder": null, "icon": null }, "geometry": { "type": "Point", "coordinates": [ 7.214994327558529, 51.48073898178486 ] } },
{ "type": "Feature", "properties": { "id": null, "Name": "Krefeld", "description": null, "timestamp": null, "begin": null, "end": null, "altitudeMode": null, "tessellate": -1, "extrude": 0, "visibility": -1, "drawOrder": null, "icon": null }, "geometry": { "type": "Point", "coordinates": [ 6.567363027353254, 51.33334173755339 ] } },
{ "type": "Feature", "properties": { "id": null, "Name": "Hagen", "description": null, "timestamp": null, "begin": null, "end": null, "altitudeMode": null, "tessellate": -1, "extrude": 0, "visibility": -1, "drawOrder": null, "icon": null }, "geometry": { "type": "Point", "coordinates": [ 7.466915435023875, 51.367956704026518 ] } },
{ "type": "Feature", "properties": { "id": null, "Name": "Münster", "description": null, "timestamp": null, "begin": null, "end": null, "altitudeMode": null, "tessellate": -1, "extrude": 0, "visibility": -1, "drawOrder": null, "icon": null }, "geometry": { "type": "Point", "coordinates": [ 7.625716303338077, 51.96161827396628 ] } },
{ "type": "Feature", "properties": { "id": null, "Name": "Paderborn", "description": null, "timestamp": null, "begin": null, "end": null, "altitudeMode": null, "tessellate": -1, "extrude": 0, "visibility": -1, "drawOrder": null, "icon": null }, "geometry": { "type": "Point", "coordinates": [ 8.759011898836583, 51.718078301899688 ] } },
{ "type": "Feature", "properties": { "id": null, "Name": "Arnsberg", "description": null, "timestamp": null, "begin": null, "end": null, "altitudeMode": null, "tessellate": -1, "extrude": 0, "visibility": -1, "drawOrder": null, "icon": null }, "geometry": { "type": "Point", "coordinates": [ 8.073054957791769, 51.395359455174138 ] } },
{ "type": "Feature", "properties": { "id": null, "Name": "Bielefeld", "description": null, "timestamp": null, "begin": null, "end": null, "altitudeMode": null, "tessellate": -1, "extrude": 0, "visibility": -1, "drawOrder": null, "icon": null }, "geometry": { "type": "Point", "coordinates": [ 8.531742270701317, 52.020754547765179 ] } },
{ "type": "Feature", "properties": { "id": null, "Name": "Detmold", "description": null, "timestamp": null, "begin": null, "end": null, "altitudeMode": null, "tessellate": -1, "extrude": 0, "visibility": -1, "drawOrder": null, "icon": null }, "geometry": { "type": "Point", "coordinates": [ 8.869034119386445, 51.937474028452833 ] } },
{ "type": "Feature", "properties": { "id": null, "Name": "Hamm", "description": null, "timestamp": null, "begin": null, "end": null, "altitudeMode": null, "tessellate": -1, "extrude": 0, "visibility": -1, "drawOrder": null, "icon": null }, "geometry": { "type": "Point", "coordinates": [ 7.818773417861353, 51.676006770162232 ] } },
{ "type": "Feature", "properties": { "id": null, "Name": "Neubrandenburg", "description": null, "timestamp": null, "begin": null, "end": null, "altitudeMode": null, "tessellate": -1, "extrude": 0, "visibility": -1, "drawOrder": null, "icon": null }, "geometry": { "type": "Point", "coordinates": [ 13.26045562922323, 53.557201532918597 ] } },
{ "type": "Feature", "properties": { "id": null, "Name": "Wilhelmshaven", "description": null, "timestamp": null, "begin": null, "end": null, "altitudeMode": null, "tessellate": -1, "extrude": 0, "visibility": -1, "drawOrder": null, "icon": null }, "geometry": { "type": "Point", "coordinates": [ 8.108737528568536, 53.530908036230301 ] } },
{ "type": "Feature", "properties": { "id": null, "Name": "Bremerhaven", "description": null, "timestamp": null, "begin": null, "end": null, "altitudeMode": null, "tessellate": -1, "extrude": 0, "visibility": -1, "drawOrder": null, "icon": null }, "geometry": { "type": "Point", "coordinates": [ 8.591306537482964, 53.538519579276389 ] } },
{ "type": "Feature", "properties": { "id": null, "Name": "Kleve", "description": null, "timestamp": null, "begin": null, "end": null, "altitudeMode": null, "tessellate": -1, "extrude": 0, "visibility": -1, "drawOrder": null, "icon": null }, "geometry": { "type": "Point", "coordinates": [ 6.130999978438425, 51.786155295001187 ] } },
{ "type": "Feature", "properties": { "id": null, "Name": "Passau", "description": null, "timestamp": null, "begin": null, "end": null, "altitudeMode": null, "tessellate": -1, "extrude": 0, "visibility": -1, "drawOrder": null, "icon": null }, "geometry": { "type": "Point", "coordinates": [ 13.431796344662491, 48.568002724983032 ] } },
{ "type": "Feature", "properties": { "id": null, "Name": "Möchengladbach", "description": null, "timestamp": null, "begin": null, "end": null, "altitudeMode": null, "tessellate": -1, "extrude": 0, "visibility": -1, "drawOrder": null, "icon": null }, "geometry": { "type": "Point", "coordinates": [ 6.429864213086185, 51.188260943774623 ] } },
{ "type": "Feature", "properties": { "id": null, "Name": "Fulda", "description": null, "timestamp": null, "begin": null, "end": null, "altitudeMode": null, "tessellate": -1, "extrude": 0, "visibility": -1, "drawOrder": null, "icon": null }, "geometry": { "type": "Point", "coordinates": [ 9.695273711628328, 50.550566215915133 ] } },
{ "type": "Feature", "properties": { "id": null, "Name": "Ravensburg", "description": null, "timestamp": null, "begin": null, "end": null, "altitudeMode": null, "tessellate": -1, "extrude": 0, "visibility": -1, "drawOrder": null, "icon": null }, "geometry": { "type": "Point", "coordinates": [ 9.610765357500743, 47.783299997849447 ] } },
{ "type": "Feature", "properties": { "id": null, "Name": "Venlo", "description": null, "timestamp": null, "begin": null, "end": null, "altitudeMode": null, "tessellate": -1, "extrude": 0, "visibility": -1, "drawOrder": null, "icon": null }, "geometry": { "type": "Point", "coordinates": [ 6.172738815027843, 51.369985541135861 ] } },
{ "type": "Feature", "properties": { "id": null, "Name": "Straßburg", "description": null, "timestamp": null, "begin": null, "end": null, "altitudeMode": null, "tessellate": -1, "extrude": 0, "visibility": -1, "drawOrder": null, "icon": null }, "geometry": { "type": "Point", "coordinates": [ 7.734818247223025, 48.58180789392452 ] } },
{ "type": "Feature", "properties": { "id": null, "Name": "Basel", "description": null, "timestamp": null, "begin": null, "end": null, "altitudeMode": null, "tessellate": -1, "extrude": 0, "visibility": -1, "drawOrder": null, "icon": null }, "geometry": { "type": "Point", "coordinates": [ 7.585066289142086, 47.556576128695731 ] } },
{ "type": "Feature", "properties": { "id": null, "Name": "Minden", "description": null, "timestamp": null, "begin": null, "end": null, "altitudeMode": null, "tessellate": -1, "extrude": 0, "visibility": -1, "drawOrder": null, "icon": null }, "geometry": { "type": "Point", "coordinates": [ 8.897325927268147, 52.290809149055747 ] } },
{ "type": "Feature", "properties": { "id": null, "Name": "Stralsund", "description": null, "timestamp": null, "begin": null, "end": null, "altitudeMode": null, "tessellate": -1, "extrude": 0, "visibility": -1, "drawOrder": null, "icon": null }, "geometry": { "type": "Point", "coordinates": [ 13.07563015652708, 54.307182402029042 ] } },
{ "type": "Feature", "properties": { "id": null, "Name": "Landshut", "description": null, "timestamp": null, "begin": null, "end": null, "altitudeMode": null, "tessellate": -1, "extrude": 0, "visibility": -1, "drawOrder": null, "icon": null }, "geometry": { "type": "Point", "coordinates": [ 12.1483688855719, 48.542819036067463 ] } },
{ "type": "Feature", "properties": { "id": null, "Name": "Suhl", "description": null, "timestamp": null, "begin": null, "end": null, "altitudeMode": null, "tessellate": -1, "extrude": 0, "visibility": -1, "drawOrder": null, "icon": null }, "geometry": { "type": "Point", "coordinates": [ 10.69705261715373, 50.608929369636208 ] } }
]
}
